IRIDIUM 33 DEB          
1 36012U 97051UT  26061.57434414  .00004793  00000+0  17491-2 0  9997
2 36012  86.4405 275.3020 0217870   7.8434 352.6069 14.20541890666172
IRIDIUM 33 DEB          
1 36028U 97051VK  26060.88947523  .00025841  00000+0  20734-2 0  9998
2 36028  86.3146 269.3331 0017594 119.5716 240.7272 14.99842236883092
IRIDIUM 33 DEB          
1 36080U 97051VM  26056.50340220  .00001938  00000+0  52714-3 0  9996
2 36080  86.3236 335.4170 0014825 275.8181  84.1332 14.47006283484958
IRIDIUM 33 DEB          
1 36083U 97051VQ  26063.10993934  .00003053  00000+0  89237-3 0  9999
2 36083  86.3489 359.1173 0025068 322.2811  37.6631 14.43587699866236
IRIDIUM 33 DEB          
1 36390U 97051VU  26060.28946878  .00006003  00000+0  88857-3 0  9996
2 36390  86.2859 263.3476 0027954 255.4751 104.3366 14.74753978674193
IRIDIUM 33 DEB          
1 36483U 97051VZ  26056.63614572  .00001873  00000+0  51909-3 0  9994
2 36483  86.3812  20.4101 0007000 234.8466 125.2081 14.46131522662284
IRIDIUM 33 DEB          
1 36490U 97051WG  26062.71736230  .00015909  00000+0  21661-2 0  9990
2 36490  86.3685 333.8802 0004733 101.6035 258.5717 14.78642502876803
IRIDIUM 33 DEB          
1 36493U 97051WK  26062.47801955  .00007983  00000+0  14317-2 0  9996
2 36493  86.3613 335.7843 0013132  73.0114 287.2538 14.66598636757012
IRIDIUM 33 DEB          
1 37548U 97051XH  26058.61648586  .00004301  00000+0  10559-2 0  9993
2 37548  86.3541   9.8892 0022794 300.6162  59.2795 14.52027279666479
IRIDIUM 33 DEB          
1 37550U 97051XK  26063.07424539  .00011188  00000+0  19165-2 0  9995
2 37550  86.3821 347.7949 0002583 136.4585 223.6834 14.68710276875261
IRIDIUM 33 DEB          
1 37562U 97051XX  26061.61133280  .00006010  00000+0  13158-2 0  9990
2 37562  86.3781   8.7448 0022579 191.3853 292.3427 14.57426225874910
IRIDIUM 33 DEB          
1 37565U 97051YA  26063.01752141  .00002871  00000+0  70547-3 0  9999
2 37565  86.3535 334.1756 0012909 158.8311 201.3431 14.51986578670163
IRIDIUM 33 DEB          
1 38017U 97051YD  26063.13925322  .00013258  00000+0  31126-2 0  9998
2 38017  86.3366 130.7479 0091807 191.0066 168.9134 14.51796385625826
IRIDIUM 33 DEB          
1 38022U 97051YJ  26062.50130758  .00004459  00000+0  13358-2 0  9995
2 38022  86.2717 341.0644 0045887 139.2710 221.1937 14.42035946703570
IRIDIUM 33 DEB          
1 38028U 97051YQ  26056.05542754  .00000921  00000+0  24956-3 0  9994
2 38028  86.3278 327.9721 0026047 233.9975 125.8813 14.46466531665695
IRIDIUM 33 DEB          
1 38228U 97051ZC  26062.61739645  .00001147  00000+0  45098-3 0  9993
2 38228  86.2987  14.0747 0062368 291.7038 192.3455 14.27439275859356
